MICROSAT-R DEB          
1 44134U 19006V   20045.75347100  .00055252  14293-5  71130-3 0  9998
2 44134  96.0416 236.6314 0549023  37.4073 326.4062 14.69215942 46787
MICROSAT-R DEB          
1 44147U 19006AJ  20045.87523700  .00180987  67526-5  15550-2 0  9991
2 44147  95.6959 223.5004 0441386  43.3023 320.2017 14.99464960 46436
MICROSAT-R DEB          
1 44154U 19006AR  20046.12651628  .00892236  14558-3  80466-2 0  9999
2 44154  96.6234 231.6386 0481517 165.6090 195.9426 14.90037892 43941
MICROSAT-R DEB          
1 44157U 19006AU  20022.22637609  .08272739  12302-5  32183-2 0  9998
2 44157  95.2971 198.4403 0047144  86.5286 274.1400 16.20930449 43340
MICROSAT-R DEB          
1 44160U 19006AX  20046.13692164  .00160647  44197-5  17650-2 0  9990
2 44160  95.2712 193.0002 0581328  86.5799 280.1694 14.65085665 45059
MICROSAT-R DEB          
1 44166U 19006BD  20045.89230442  .00320824  19991-4  27447-2 0  9998
2 44166  95.6371 208.4270 0412581  96.3054 268.5326 15.05624475 45016
MICROSAT-R DEB          
1 44203U 19006CP  20046.07725451  .00230258  20503-4  57183-3 0  9993
2 44203  96.0955 275.1108 0088279 242.8162 116.4095 15.89219986 48266
MICROSAT-R DEB          
1 44216U 19006CS  20046.06496290  .00724094  15330-5  34861-3 0  9999
2 44216  95.8907 274.2871 0045858 165.3683 194.8980 16.18547220 45745
MICROSAT-R DEB          
1 44217U 19006CT  20045.88050960  .00980542  16613-5  71742-3 0  9995
2 44217  96.1009 282.1648 0036511 217.0222 142.8546 16.14057251 45559
MICROSAT-R DEB          
1 44381U 19006DC  20045.11574754  .00058054  59887-6  80183-3 0  9999
2 44381  94.6377 166.1956 0730370 101.3015 267.1094 14.28750082 38785
MICROSAT-R DEB          
1 44382U 19006DD  20045.81683577  .00049221  13406-5  44674-3 0  9998
2 44382  94.6824 190.3399 0416170 315.6972  41.1635 15.03890879 41142
MICROSAT-R DEB          
1 44383U 19006DE  20045.90471141  .00065891  12602-5  11450-2 0  9994
2 44383  96.1773 217.4155 0864091 145.7626 220.2498 13.95693097 38269
MICROSAT-R DEB          
1 44463U 19006DM  20045.84823356  .00228130  69787-5  40132-2 0  9997
2 44463  95.8569 192.4546 0948220 205.7588 149.3314 13.77191271 31374
MICROSAT-R DEB          
1 44470U 19006DU  20045.57083160  .00586010  52407-4  66721-2 0  9992
2 44470  95.4236 191.8199 0621144 128.0728 237.7891 14.55838172 29691
